{"type": "FeatureCollection", "features": [ {"type": "Feature", "properties": {"norad_id": 52984, "name": "COSMOS 2557 (706K)", "group": "gnss", "lat": 59.26933572474997, "lon": 14.480170706269046, "alt_km": 19154.546354624737, "timestamp": "2025-12-19T22:41:52.635387+00:00", "meta": {"OBJECT_NAME": "COSMOS 2557 (706K)", "OBJECT_ID": "2022-075A", "EPOCH": "2025-12-18T21:54:24.162624", "MEAN_MOTION": 2.1310197, "ECCENTRICITY": 0.00135327, "INCLINATION": 64.4064, "RA_OF_ASC_NODE": 320.8341, "ARG_OF_PERICENTER": 277.9279, "MEAN_ANOMALY": 81.9104, "EPHEMERIS_TYPE": 0, "CLASSIFICATION_TYPE": "U", "NORAD_CAT_ID": 52984, "ELEMENT_SET_NO": 999, "REV_AT_EPOCH": 2687, "BSTAR": 0, "MEAN_MOTION_DOT": -6.2e-07, "MEAN_MOTION_DDOT": 0}, "tle": {"line1": "1 52984U 22075A   25352.91277966 -.00000062  00000+0  00000+0 0  9995", "line2": "2 52984  64.4064 320.8341 0013532 277.9279  81.9104  2.13101970 26872"}}, "geometry": {"type": "Point", "coordinates": [14.480170706269046, 59.26933572474997]}}, {"type": "Feature", "properties": {"norad_id": 54031, "name": "COSMOS 2559 (707K)", "group": "gnss", "lat": -27.875687529573813, "lon": 155.56864903100586, "alt_km": 19105.887856266687, "timestamp": "2025-12-19T22:41:52.635402+00:00", "meta": {"OBJECT_NAME": "COSMOS 2559 (707K)", "OBJECT_ID": "2022-130A", "EPOCH": "2025-12-19T04:49:46.570944", "MEAN_MOTION": 2.13101385, "ECCENTRICITY": 0.0011608, "INCLINATION": 64.3786, "RA_OF_ASC_NODE": 320.9138, "ARG_OF_PERICENTER": 191.996, "MEAN_ANOMALY": 167.9688, "EPHEMERIS_TYPE": 0, "CLASSIFICATION_TYPE": "U", "NORAD_CAT_ID": 54031, "ELEMENT_SET_NO": 999, "REV_AT_EPOCH": 2485, "BSTAR": 0, "MEAN_MOTION_DOT": -6.1e-07, "MEAN_MOTION_DDOT": 0}, "tle": {"line1": "1 54031U 22130A   25353.20123346 -.00000061  00000+0  00000+0 0  9996", "line2": "2 54031  64.3786 320.9138 0011608 191.9960 167.9688  2.13101385 24854"}}, "geometry": {"type": "Point", "coordinates": [155.56864903100586, -27.875687529573813]}}, {"type": "Feature", "properties": {"norad_id": 54377, "name": "COSMOS 2564 (761)", "group": "gnss", "lat": -26.226307901131797, "lon": -174.7933062237873, "alt_km": 19146.6164068756, "timestamp": "2025-12-19T22:41:52.635413+00:00", "meta": {"OBJECT_NAME": "COSMOS 2564 (761)", "OBJECT_ID": "2022-161A", "EPOCH": "2025-12-19T01:05:24.764064", "MEAN_MOTION": 2.13102078, "ECCENTRICITY": 0.0008559, "INCLINATION": 64.7386, "RA_OF_ASC_NODE": 198.6894, "ARG_OF_PERICENTER": 204.0173, "MEAN_ANOMALY": 156.0236, "EPHEMERIS_TYPE": 0, "CLASSIFICATION_TYPE": "U", "NORAD_CAT_ID": 54377, "ELEMENT_SET_NO": 999, "REV_AT_EPOCH": 2379, "BSTAR": 0, "MEAN_MOTION_DOT": 1.07e-06, "MEAN_MOTION_DDOT": 0}, "tle": {"line1": "1 54377U 22161A   25353.04542551  .00000107  00000+0  00000+0 0  9998", "line2": "2 54377  64.7386 198.6894 0008559 204.0173 156.0236  2.13102078 23799"}}, "geometry": {"type": "Point", "coordinates": [-174.7933062237873, -26.226307901131797]}}, {"type": "Feature", "properties": {"norad_id": 55268, "name": "GPS BIII-6  (PRN 28)", "group": "gnss", "lat": -11.362081855095699, "lon": 147.4870486291928, "alt_km": 20174.807248719775, "timestamp": "2025-12-19T22:41:52.635424+00:00", "meta": {"OBJECT_NAME": "GPS BIII-6  (PRN 28)", "OBJECT_ID": "2023-009A", "EPOCH": "2025-12-17T11:51:56.668896", "MEAN_MOTION": 2.00555417, "ECCENTRICITY": 0.00037978, "INCLINATION": 55.1064, "RA_OF_ASC_NODE": 155.6587, "ARG_OF_PERICENTER": 358.2196, "MEAN_ANOMALY": 17.9493, "EPHEMERIS_TYPE": 0, "CLASSIFICATION_TYPE": "U", "NORAD_CAT_ID": 55268, "ELEMENT_SET_NO": 999, "REV_AT_EPOCH": 2160, "BSTAR": 0, "MEAN_MOTION_DOT": 7.7e-07, "MEAN_MOTION_DDOT": 0}, "tle": {"line1": "1 55268U 23009A   25351.49440589  .00000077  00000+0  00000+0 0  9991", "line2": "2 55268  55.1064 155.6587 0003797 358.2196  17.9493  2.00555417 21607"}}, "geometry": {"type": "Point", "coordinates": [147.4870486291928, -11.362081855095699]}}, {"type": "Feature", "properties": {"norad_id": 56564, "name": "BEIDOU-3 G4 (C62)", "group": "gnss", "lat": -0.7886217598662077, "lon": -130.6666813057061, "alt_km": 35780.5737677154, "timestamp": "2025-12-19T22:41:52.635436+00:00", "meta": {"OBJECT_NAME": "BEIDOU-3 G4 (C62)", "OBJECT_ID": "2023-066A", "EPOCH": "2025-12-19T19:36:37.155744", "MEAN_MOTION": 1.00271581, "ECCENTRICITY": 0.0002729, "INCLINATION": 0.8001, "RA_OF_ASC_NODE": 302.5987, "ARG_OF_PERICENTER": 226.497, "MEAN_ANOMALY": 13.7807, "EPHEMERIS_TYPE": 0, "CLASSIFICATION_TYPE": "U", "NORAD_CAT_ID": 56564, "ELEMENT_SET_NO": 999, "REV_AT_EPOCH": 959, "BSTAR": 0, "MEAN_MOTION_DOT": -8.6e-07, "MEAN_MOTION_DDOT": 0}, "tle": {"line1": "1 56564U 23066A   25353.81709671 -.00000086  00000+0  00000+0 0  9993", "line2": "2 56564   0.8001 302.5987 0002729 226.4970  13.7807  1.00271581  9595"}}, "geometry": {"type": "Point", "coordinates": [-130.6666813057061, -0.7886217598662077]}}, {"type": "Feature", "properties": {"norad_id": 56759, "name": "NVS-01 (IRNSS-1J)", "group": "gnss", "lat": -2.082251768209075, "lon": -161.2778556371014, "alt_km": 35772.204157139226, "timestamp": "2025-12-19T22:41:52.635475+00:00", "meta": {"OBJECT_NAME": "NVS-01 (IRNSS-1J)", "OBJECT_ID": "2023-076A", "EPOCH": "2025-12-19T17:18:08.241408", "MEAN_MOTION": 1.00274161, "ECCENTRICITY": 0.0008757, "INCLINATION": 2.6019, "RA_OF_ASC_NODE": 251.3504, "ARG_OF_PERICENTER": 16.0364, "MEAN_ANOMALY": 210.2572, "EPHEMERIS_TYPE": 0, "CLASSIFICATION_TYPE": "U", "NORAD_CAT_ID": 56759, "ELEMENT_SET_NO": 999, "REV_AT_EPOCH": 931, "BSTAR": 0, "MEAN_MOTION_DOT": -3.08e-06, "MEAN_MOTION_DDOT": 0}, "tle": {"line1": "1 56759U 23076A   25353.72092872 -.00000308  00000+0  00000+0 0  9995", "line2": "2 56759   2.6019 251.3504 0008757  16.0364 210.2572  1.00274161  9313"}}, "geometry": {"type": "Point", "coordinates": [-161.2778556371014, -2.082251768209075]}}, {"type": "Feature", "properties": {"norad_id": 57517, "name": "COSMOS 2569 (703K)", "group": "gnss", "lat": -35.3381074645806, "lon": 59.57840171681288, "alt_km": 19111.422673684483, "timestamp": "2025-12-19T22:41:52.635492+00:00", "meta": {"OBJECT_NAME": "COSMOS 2569 (703K)", "OBJECT_ID": "2023-114A", "EPOCH": "2025-12-19T12:40:20.363808", "MEAN_MOTION": 2.13104046, "ECCENTRICITY": 0.0010771, "INCLINATION": 65.1977, "RA_OF_ASC_NODE": 78.6841, "ARG_OF_PERICENTER": 287.0303, "MEAN_ANOMALY": 72.8809, "EPHEMERIS_TYPE": 0, "CLASSIFICATION_TYPE": "U", "NORAD_CAT_ID": 57517, "ELEMENT_SET_NO": 999, "REV_AT_EPOCH": 1843, "BSTAR": 0, "MEAN_MOTION_DOT": -2.7e-07, "MEAN_MOTION_DDOT": 0}, "tle": {"line1": "1 57517U 23114A   25353.52801347 -.00000027  00000+0  00000+0 0  9992", "line2": "2 57517  65.1977  78.6841 0010771 287.0303  72.8809  2.13104046 18436"}}, "geometry": {"type": "Point", "coordinates": [59.57840171681288, -35.3381074645806]}}, {"type": "Feature", "properties": {"norad_id": 58654, "name": "BEIDOU-3 M28 (C50)", "group": "gnss", "lat": -5.3723293217867205, "lon": 64.68416510547628, "alt_km": 21528.019234968127, "timestamp": "2025-12-19T22:41:52.635511+00:00", "meta": {"OBJECT_NAME": "BEIDOU-3 M28 (C50)", "OBJECT_ID": "2023-207A", "EPOCH": "2025-12-18T08:16:11.764704", "MEAN_MOTION": 1.86229821, "ECCENTRICITY": 0.00026501, "INCLINATION": 55.5892, "RA_OF_ASC_NODE": 68.4116, "ARG_OF_PERICENTER": 272.4264, "MEAN_ANOMALY": 87.5728, "EPHEMERIS_TYPE": 0, "CLASSIFICATION_TYPE": "U", "NORAD_CAT_ID": 58654, "ELEMENT_SET_NO": 999, "REV_AT_EPOCH": 1347, "BSTAR": 0, "MEAN_MOTION_DOT": -6.6e-07, "MEAN_MOTION_DDOT": 0}, "tle": {"line1": "1 58654U 23207A   25352.34458061 -.00000066  00000+0  00000+0 0  9991", "line2": "2 58654  55.5892  68.4116 0002650 272.4264  87.5728  1.86229821 13471"}}, "geometry": {"type": "Point", "coordinates": [64.68416510547628, -5.3723293217867205]}}, {"type": "Feature", "properties": {"norad_id": 58655, "name": "BEIDOU-3 M26 (C48)", "group": "gnss", "lat": 39.78700641765718, "lon": -146.38104250397575, "alt_km": 21530.32205006322, "timestamp": "2025-12-19T22:41:52.635525+00:00", "meta": {"OBJECT_NAME": "BEIDOU-3 M26 (C48)", "OBJECT_ID": "2023-207B", "EPOCH": "2025-12-19T05:11:10.015296", "MEAN_MOTION": 1.86231346, "ECCENTRICITY": 0.0004042, "INCLINATION": 55.592, "RA_OF_ASC_NODE": 68.3684, "ARG_OF_PERICENTER": 258.4158, "MEAN_ANOMALY": 101.5732, "EPHEMERIS_TYPE": 0, "CLASSIFICATION_TYPE": "U", "NORAD_CAT_ID": 58655, "ELEMENT_SET_NO": 999, "REV_AT_EPOCH": 1347, "BSTAR": 0, "MEAN_MOTION_DOT": -5.7e-07, "MEAN_MOTION_DDOT": 0}, "tle": {"line1": "1 58655U 23207B   25353.21608814 -.00000057  00000+0  00000+0 0  9992", "line2": "2 58655  55.5920  68.3684 0004042 258.4158 101.5732  1.86231346 13473"}}, "geometry": {"type": "Point", "coordinates": [-146.38104250397575, 39.78700641765718]}}, {"type": "Feature", "properties": {"norad_id": 59598, "name": "GSAT0225 (GALILEO 29)", "group": "gnss", "lat": 16.79819377947884, "lon": 118.27863921609918, "alt_km": 23226.36476531012, "timestamp": "2025-12-19T22:41:52.635537+00:00", "meta": {"OBJECT_NAME": "GSAT0225 (GALILEO 29)", "OBJECT_ID": "2024-079A", "EPOCH": "2025-12-19T07:40:30.040032", "MEAN_MOTION": 1.7047502, "ECCENTRICITY": 0.0002191, "INCLINATION": 55.0052, "RA_OF_ASC_NODE": 106.1117, "ARG_OF_PERICENTER": 185.2617, "MEAN_ANOMALY": 171.1938, "EPHEMERIS_TYPE": 0, "CLASSIFICATION_TYPE": "U", "NORAD_CAT_ID": 59598, "ELEMENT_SET_NO": 999, "REV_AT_EPOCH": 1024, "BSTAR": 0, "MEAN_MOTION_DOT": -6e-08, "MEAN_MOTION_DDOT": 0}, "tle": {"line1": "1 59598U 24079A   25353.31979213 -.00000006  00000+0  00000+0 0  9996", "line2": "2 59598  55.0052 106.1117 0002191 185.2617 171.1938  1.70475020 10248"}}, "geometry": {"type": "Point", "coordinates": [118.27863921609918, 16.79819377947884]}}]}